{"type": "FeatureCollection", "features": [ {"type": "Feature", "properties": {"norad_id": 30345, "name": "FENGYUN 1C DEB", "group": "fengyun-1c-debris", "lat": -42.771623091511756, "lon": 56.10911756257338, "alt_km": 757.0670383556217, "timestamp": "2025-12-14T07:33:19.753310+00:00", "meta": {"OBJECT_NAME": "FENGYUN 1C DEB", "OBJECT_ID": "1999-025ABG", "EPOCH": "2025-12-13T03:26:24.601920", "MEAN_MOTION": 14.41670308, "ECCENTRICITY": 0.0017389, "INCLINATION": 98.9208, "RA_OF_ASC_NODE": 46.5313, "ARG_OF_PERICENTER": 241.381, "MEAN_ANOMALY": 118.5629, "EPHEMERIS_TYPE": 0, "CLASSIFICATION_TYPE": "U", "NORAD_CAT_ID": 30345, "ELEMENT_SET_NO": 999, "REV_AT_EPOCH": 97779, "BSTAR": 0.0030203262, "MEAN_MOTION_DOT": 9.825e-05, "MEAN_MOTION_DDOT": 0}, "tle": {"line1": "1 30345U 99025ABG 25347.14334030  .00009825  00000+0  30203-2 0  9992", "line2": "2 30345  98.9208  46.5313 0017389 241.3810 118.5629 14.41670308977797"}}, "geometry": {"type": "Point", "coordinates": [56.10911756257338, -42.771623091511756]}}, {"type": "Feature", "properties": {"norad_id": 30346, "name": "FENGYUN 1C DEB", "group": "fengyun-1c-debris", "lat": -15.755076578786952, "lon": 87.55483600418022, "alt_km": 750.8778553606908, "timestamp": "2025-12-14T07:33:19.753321+00:00", "meta": {"OBJECT_NAME": "FENGYUN 1C DEB", "OBJECT_ID": "1999-025ABH", "EPOCH": "2025-12-13T05:06:44.610048", "MEAN_MOTION": 14.33903033, "ECCENTRICITY": 0.00553558, "INCLINATION": 98.8082, "RA_OF_ASC_NODE": 83.926, "ARG_OF_PERICENTER": 22.4403, "MEAN_ANOMALY": 37.7685, "EPHEMERIS_TYPE": 0, "CLASSIFICATION_TYPE": "U", "NORAD_CAT_ID": 30346, "ELEMENT_SET_NO": 999, "REV_AT_EPOCH": 97420, "BSTAR": 0.0028473919, "MEAN_MOTION_DOT": 8.034e-05, "MEAN_MOTION_DDOT": 0}, "tle": {"line1": "1 30346U 99025ABH 25347.21301632  .00008034  00000+0  28474-2 0  9991", "line2": "2 30346  98.8082  83.9260 0055355  22.4403  37.7685 14.33903033974206"}}, "geometry": {"type": "Point", "coordinates": [87.55483600418022, -15.755076578786952]}}, {"type": "Feature", "properties": {"norad_id": 30347, "name": "FENGYUN 1C DEB", "group": "fengyun-1c-debris", "lat": 35.14826315961288, "lon": -2.0028173437263583, "alt_km": 961.5337763948091, "timestamp": "2025-12-14T07:33:19.753332+00:00", "meta": {"OBJECT_NAME": "FENGYUN 1C DEB", "OBJECT_ID": "1999-025ABJ", "EPOCH": "2025-12-13T12:09:57.811968", "MEAN_MOTION": 13.92769169, "ECCENTRICITY": 0.01505662, "INCLINATION": 98.3766, "RA_OF_ASC_NODE": 171.3113, "ARG_OF_PERICENTER": 31.6083, "MEAN_ANOMALY": 22.6429, "EPHEMERIS_TYPE": 0, "CLASSIFICATION_TYPE": "U", "NORAD_CAT_ID": 30347, "ELEMENT_SET_NO": 999, "REV_AT_EPOCH": 95971, "BSTAR": 0.00020295981, "MEAN_MOTION_DOT": 2.51e-06, "MEAN_MOTION_DDOT": 0}, "tle": {"line1": "1 30347U 99025ABJ 25347.50691912  .00000251  00000+0  20296-3 0  9995", "line2": "2 30347  98.3766 171.3113 0150566  31.6083  22.6429 13.92769169959718"}}, "geometry": {"type": "Point", "coordinates": [-2.0028173437263583, 35.14826315961288]}}, {"type": "Feature", "properties": {"norad_id": 30348, "name": "FENGYUN 1C DEB", "group": "fengyun-1c-debris", "lat": -73.33729612067701, "lon": 114.53247845279367, "alt_km": 781.3706991977961, "timestamp": "2025-12-14T07:33:19.753342+00:00", "meta": {"OBJECT_NAME": "FENGYUN 1C DEB", "OBJECT_ID": "1999-025ABK", "EPOCH": "2025-12-12T19:40:22.405728", "MEAN_MOTION": 14.351044, "ECCENTRICITY": 0.00171836, "INCLINATION": 98.8629, "RA_OF_ASC_NODE": 81.5774, "ARG_OF_PERICENTER": 16.1491, "MEAN_ANOMALY": 108.2791, "EPHEMERIS_TYPE": 0, "CLASSIFICATION_TYPE": "U", "NORAD_CAT_ID": 30348, "ELEMENT_SET_NO": 999, "REV_AT_EPOCH": 97535, "BSTAR": 0.0029260558, "MEAN_MOTION_DOT": 8.327e-05, "MEAN_MOTION_DDOT": 0}, "tle": {"line1": "1 30348U 99025ABK 25346.81970377  .00008327  00000+0  29261-2 0  9996", "line2": "2 30348  98.8629  81.5774 0017183  16.1491 108.2791 14.35104400975355"}}, "geometry": {"type": "Point", "coordinates": [114.53247845279367, -73.33729612067701]}}, {"type": "Feature", "properties": {"norad_id": 30349, "name": "FENGYUN 1C DEB", "group": "fengyun-1c-debris", "lat": 52.52852802486665, "lon": 142.0550721555985, "alt_km": 881.1833968131787, "timestamp": "2025-12-14T07:33:19.753352+00:00", "meta": {"OBJECT_NAME": "FENGYUN 1C DEB", "OBJECT_ID": "1999-025ABL", "EPOCH": "2025-12-13T11:07:18.828768", "MEAN_MOTION": 14.11118151, "ECCENTRICITY": 0.00893212, "INCLINATION": 98.5839, "RA_OF_ASC_NODE": 309.8768, "ARG_OF_PERICENTER": 10.2447, "MEAN_ANOMALY": 112.6844, "EPHEMERIS_TYPE": 0, "CLASSIFICATION_TYPE": "U", "NORAD_CAT_ID": 30349, "ELEMENT_SET_NO": 999, "REV_AT_EPOCH": 96241, "BSTAR": 0.0033613841, "MEAN_MOTION_DOT": 6.246e-05, "MEAN_MOTION_DDOT": 0}, "tle": {"line1": "1 30349U 99025ABL 25347.46341237  .00006246  00000+0  33614-2 0  9991", "line2": "2 30349  98.5839 309.8768 0089321  10.2447 112.6844 14.11118151962417"}}, "geometry": {"type": "Point", "coordinates": [142.0550721555985, 52.52852802486665]}}, {"type": "Feature", "properties": {"norad_id": 30350, "name": "FENGYUN 1C DEB", "group": "fengyun-1c-debris", "lat": -78.37627051795761, "lon": -57.294608956206474, "alt_km": 841.552944586243, "timestamp": "2025-12-14T07:33:19.753362+00:00", "meta": {"OBJECT_NAME": "FENGYUN 1C DEB", "OBJECT_ID": "1999-025ABM", "EPOCH": "2025-12-13T11:18:46.350720", "MEAN_MOTION": 13.82815643, "ECCENTRICITY": 0.02193312, "INCLINATION": 98.0926, "RA_OF_ASC_NODE": 165.7414, "ARG_OF_PERICENTER": 306.6975, "MEAN_ANOMALY": 80.1549, "EPHEMERIS_TYPE": 0, "CLASSIFICATION_TYPE": "U", "NORAD_CAT_ID": 30350, "ELEMENT_SET_NO": 999, "REV_AT_EPOCH": 94992, "BSTAR": 0.0010814364, "MEAN_MOTION_DOT": 1.38e-05, "MEAN_MOTION_DDOT": 0}, "tle": {"line1": "1 30350U 99025ABM 25347.47136980  .00001380  00000+0  10814-2 0  9992", "line2": "2 30350  98.0926 165.7414 0219331 306.6975  80.1549 13.82815643949921"}}, "geometry": {"type": "Point", "coordinates": [-57.294608956206474, -78.37627051795761]}}, {"type": "Feature", "properties": {"norad_id": 30352, "name": "FENGYUN 1C DEB", "group": "fengyun-1c-debris", "lat": -43.75339133191217, "lon": 17.839835266308572, "alt_km": 854.0818167966536, "timestamp": "2025-12-14T07:33:19.753375+00:00", "meta": {"OBJECT_NAME": "FENGYUN 1C DEB", "OBJECT_ID": "1999-025ABP", "EPOCH": "2025-12-11T13:57:21.640608", "MEAN_MOTION": 14.07583622, "ECCENTRICITY": 0.00278488, "INCLINATION": 98.7646, "RA_OF_ASC_NODE": 6.6944, "ARG_OF_PERICENTER": 322.6261, "MEAN_ANOMALY": 190.227, "EPHEMERIS_TYPE": 0, "CLASSIFICATION_TYPE": "U", "NORAD_CAT_ID": 30352, "ELEMENT_SET_NO": 999, "REV_AT_EPOCH": 96894, "BSTAR": 0.0003371794, "MEAN_MOTION_DOT": 5.28e-06, "MEAN_MOTION_DDOT": 0}, "tle": {"line1": "1 30352U 99025ABP 25345.58150047  .00000528  00000+0  33718-3 0  9996", "line2": "2 30352  98.7646   6.6944 0027848 322.6261 190.2270 14.07583622968940"}}, "geometry": {"type": "Point", "coordinates": [17.839835266308572, -43.75339133191217]}}, {"type": "Feature", "properties": {"norad_id": 30355, "name": "FENGYUN 1C DEB", "group": "fengyun-1c-debris", "lat": 10.369712911353568, "lon": -8.968322767756776, "alt_km": 814.8461957901318, "timestamp": "2025-12-14T07:33:19.753387+00:00", "meta": {"OBJECT_NAME": "FENGYUN 1C DEB", "OBJECT_ID": "1999-025ABS", "EPOCH": "2025-12-13T11:54:49.951872", "MEAN_MOTION": 14.18824408, "ECCENTRICITY": 0.00531236, "INCLINATION": 98.5892, "RA_OF_ASC_NODE": 351.8237, "ARG_OF_PERICENTER": 307.2906, "MEAN_ANOMALY": 204.9145, "EPHEMERIS_TYPE": 0, "CLASSIFICATION_TYPE": "U", "NORAD_CAT_ID": 30355, "ELEMENT_SET_NO": 999, "REV_AT_EPOCH": 97361, "BSTAR": 0.0010161721, "MEAN_MOTION_DOT": 2.101e-05, "MEAN_MOTION_DDOT": 0}, "tle": {"line1": "1 30355U 99025ABS 25347.49641148  .00002101  00000+0  10162-2 0  9994", "line2": "2 30355  98.5892 351.8237 0053123 307.2906 204.9145 14.18824408973610"}}, "geometry": {"type": "Point", "coordinates": [-8.968322767756776, 10.369712911353568]}}, {"type": "Feature", "properties": {"norad_id": 30356, "name": "FENGYUN 1C DEB", "group": "fengyun-1c-debris", "lat": 41.91908450618565, "lon": 171.39279703600513, "alt_km": 877.0720087759, "timestamp": "2025-12-14T07:33:19.753399+00:00", "meta": {"OBJECT_NAME": "FENGYUN 1C DEB", "OBJECT_ID": "1999-025ABT", "EPOCH": "2025-12-13T12:46:36.566688", "MEAN_MOTION": 14.13038469, "ECCENTRICITY": 0.00520807, "INCLINATION": 98.6813, "RA_OF_ASC_NODE": 342.7495, "ARG_OF_PERICENTER": 286.7004, "MEAN_ANOMALY": 193.0058, "EPHEMERIS_TYPE": 0, "CLASSIFICATION_TYPE": "U", "NORAD_CAT_ID": 30356, "ELEMENT_SET_NO": 999, "REV_AT_EPOCH": 97032, "BSTAR": 0.001007312, "MEAN_MOTION_DOT": 1.861e-05, "MEAN_MOTION_DDOT": 0}, "tle": {"line1": "1 30356U 99025ABT 25347.53236767  .00001861  00000+0  10073-2 0  9990", "line2": "2 30356  98.6813 342.7495 0052080 286.7004 193.0058 14.13038469970326"}}, "geometry": {"type": "Point", "coordinates": [171.39279703600513, 41.91908450618565]}}, {"type": "Feature", "properties": {"norad_id": 30357, "name": "FENGYUN 1C DEB", "group": "fengyun-1c-debris", "lat": -76.87191336132994, "lon": 57.17471744537203, "alt_km": 858.2487805218334, "timestamp": "2025-12-14T07:33:19.753409+00:00", "meta": {"OBJECT_NAME": "FENGYUN 1C DEB", "OBJECT_ID": "1999-025ABU", "EPOCH": "2025-12-13T15:24:15.314688", "MEAN_MOTION": 14.0526334, "ECCENTRICITY": 0.00488134, "INCLINATION": 98.8062, "RA_OF_ASC_NODE": 14.8645, "ARG_OF_PERICENTER": 327.6956, "MEAN_ANOMALY": 149.8739, "EPHEMERIS_TYPE": 0, "CLASSIFICATION_TYPE": "U", "NORAD_CAT_ID": 30357, "ELEMENT_SET_NO": 999, "REV_AT_EPOCH": 96819, "BSTAR": 8.5645728e-05, "MEAN_MOTION_DOT": 9.7e-07, "MEAN_MOTION_DDOT": 0}, "tle": {"line1": "1 30357U 99025ABU 25347.64184392  .00000097  00000+0  85646-4 0  9999", "line2": "2 30357  98.8062  14.8645 0048813 327.6956 149.8739 14.05263340968195"}}, "geometry": {"type": "Point", "coordinates": [57.17471744537203, -76.87191336132994]}}]}